start=new Date('2022-03-27T00:00:00.000Z').valueOf();
sats=[{"LAUNCH_DATE":"2021-11-13","OBJECT_ID":"2021-104N","TLE_LINE2":"2 49420  53.2145 230.4596 0002041  35.6131 239.7286 15.08810563  3597","TIME_SYSTEM":"UTC","CLASSIFICATION_TYPE":"U","COUNTRY_CODE":"US","FILE":"3375650","BSTAR":"0.00148020000000","SEMIMAJOR_AXIS":"6917.970","EPHEMERIS_TYPE":"0","MEAN_ANOMALY":"239.7286","APOAPSIS":"541.247","PERIAPSIS":"538.423","OBJECT_TYPE":"PAYLOAD","INCLINATION":"53.2145","REF_FRAME":"TEME","SITE":"AFETR","MEAN_MOTION_DDOT":"0.0000000000000","OBJECT_NAME":"STARLINK-3110","EPOCH":"2022-03-26T22:00:00.999936","GP_ID":"199782480","REV_AT_EPOCH":"359","DECAY_DATE":null,"PERIOD":"95.439","RA_OF_ASC_NODE":"230.4596","MEAN_MOTION_DOT":"0.00023329","NORAD_CAT_ID":"49420","CENTER_NAME":"EARTH","RCS_SIZE":"LARGE","TLE_LINE1":"1 49420U 21104N   22085.91667824  .00023329  00000-0  14802-2 0  9993","ARG_OF_PERICENTER":"35.6131","ECCENTRICITY":"0.00020410","MEAN_ELEMENT_THEORY":"SGP4","ELEMENT_SET_NO":"999","MEAN_MOTION":"15.08810563"},{"ARG_OF_PERICENTER":"38.6549","TLE_LINE1":"1 49421U 21104P   22085.91667824 -.00018854  00000-0 -11693-2 0  9998","RCS_SIZE":"LARGE","CENTER_NAME":"EARTH","NORAD_CAT_ID":"49421","RA_OF_ASC_NODE":"230.4607","PERIOD":"95.437","MEAN_MOTION_DOT":"-0.00018854","REV_AT_EPOCH":"2174","DECAY_DATE":null,"GP_ID":"199755989","EPOCH":"2022-03-26T22:00:00.999936","OBJECT_NAME":"STARLINK-3112","MEAN_MOTION_DDOT":"0.0000000000000","REF_FRAME":"TEME","SITE":"AFETR","INCLINATION":"53.2153","MEAN_MOTION":"15.08848789","ELEMENT_SET_NO":"999","MEAN_ELEMENT_THEORY":"SGP4","ECCENTRICITY":"0.00018380","COUNTRY_CODE":"US","CLASSIFICATION_TYPE":"U","TIME_SYSTEM":"UTC","TLE_LINE2":"2 49421  53.2153 230.4607 0001838  38.6549 316.7301 15.08848789 21741","OBJECT_ID":"2021-104P","LAUNCH_DATE":"2021-11-13","OBJECT_TYPE":"PAYLOAD","PERIAPSIS":"538.447","APOAPSIS":"540.990","MEAN_ANOMALY":"316.7301","EPHEMERIS_TYPE":"0","SEMIMAJOR_AXIS":"6917.854","FILE":"3375536","BSTAR":"-0.00116930000000"},{"MEAN_MOTION":"15.08827559","ECCENTRICITY":"0.00020360","MEAN_ELEMENT_THEORY":"SGP4","ELEMENT_SET_NO":"999","NORAD_CAT_ID":"49422","PERIOD":"95.438","RA_OF_ASC_NODE":"230.4625","MEAN_MOTION_DOT":"0.00022655","DECAY_DATE":null,"REV_AT_EPOCH":"359","ARG_OF_PERICENTER":"41.5915","TLE_LINE1":"1 49422U 21104Q   22085.91667824  .00022655  00000-0  14374-2 0  9990","RCS_SIZE":"LARGE","CENTER_NAME":"EARTH","REF_FRAME":"TEME","SITE":"AFETR","INCLINATION":"53.2135","GP_ID":"199780978","EPOCH":"2022-03-26T22:00:00.999936","OBJECT_NAME":"STARLINK-3161","MEAN_MOTION_DDOT":"0.0000000000000","OBJECT_TYPE":"PAYLOAD","APOAPSIS":"541.192","PERIAPSIS":"538.375","MEAN_ANOMALY":"253.7586","FILE":"3375650","BSTAR":"0.00143740000000","EPHEMERIS_TYPE":"0","SEMIMAJOR_AXIS":"6917.918","CLASSIFICATION_TYPE":"U","TIME_SYSTEM":"UTC","COUNTRY_CODE":"US","TLE_LINE2":"2 49422  53.2135 230.4625 0002036  41.5915 253.7586 15.08827559  3593","LAUNCH_DATE":"2021-11-13","OBJECT_ID":"2021-104Q"},{"OBJECT_TYPE":"PAYLOAD","PERIAPSIS":"538.404","APOAPSIS":"541.137","MEAN_ANOMALY":"356.1264","EPHEMERIS_TYPE":"0","SEMIMAJOR_AXIS":"6917.906","BSTAR":"0.00152080000000","FILE":"3375568","COUNTRY_CODE":"US","CLASSIFICATION_TYPE":"U","TIME_SYSTEM":"UTC","TLE_LINE2":"2 49423  53.2146 230.4550 0001975  39.2421 356.1264 15.08831719 21752","OBJECT_ID":"2021-104R","LAUNCH_DATE":"2021-11-13","MEAN_MOTION":"15.08831719","ELEMENT_SET_NO":"999","MEAN_ELEMENT_THEORY":"SGP4","ECCENTRICITY":"0.00019750","ARG_OF_PERICENTER":"39.2421","TLE_LINE1":"1 49423U 21104R   22085.91667824  .00023993  00000-0  15208-2 0  9994","RCS_SIZE":"LARGE","CENTER_NAME":"EARTH","NORAD_CAT_ID":"49423","RA_OF_ASC_NODE":"230.4550","PERIOD":"95.438","MEAN_MOTION_DOT":"0.00023993","DECAY_DATE":null,"REV_AT_EPOCH":"2175","EPOCH":"2022-03-26T22:00:00.999936","GP_ID":"199756805","OBJECT_NAME":"STARLINK-3149","MEAN_MOTION_DDOT":"0.0000000000000","REF_FRAME":"TEME","SITE":"AFETR","INCLINATION":"53.2146"},{"LAUNCH_DATE":"2021-11-13","OBJECT_ID":"2021-104S","TLE_LINE2":"2 49424  53.2151 230.4608 0002123  37.6951 297.6789 15.08831265 21745","COUNTRY_CODE":"US","CLASSIFICATION_TYPE":"U","TIME_SYSTEM":"UTC","SEMIMAJOR_AXIS":"6917.907","EPHEMERIS_TYPE":"0","FILE":"3375568","BSTAR":"-0.00036110000000","PERIAPSIS":"538.303","APOAPSIS":"541.241","OBJECT_TYPE":"PAYLOAD","MEAN_ANOMALY":"297.6789","OBJECT_NAME":"STARLINK-3135","GP_ID":"199756304","EPOCH":"2022-03-26T22:00:00.999936","MEAN_MOTION_DDOT":"0.0000000000000","INCLINATION":"53.2151","SITE":"AFETR","REF_FRAME":"TEME","TLE_LINE1":"1 49424U 21104S   22085.91667824 -.00006029  00000-0 -36110-3 0  9994","ARG_OF_PERICENTER":"37.6951","CENTER_NAME":"EARTH","RCS_SIZE":"LARGE","NORAD_CAT_ID":"49424","DECAY_DATE":null,"REV_AT_EPOCH":"2174","PERIOD":"95.438","MEAN_MOTION_DOT":"-0.00006029","RA_OF_ASC_NODE":"230.4608","ELEMENT_SET_NO":"999","MEAN_ELEMENT_THEORY":"SGP4","ECCENTRICITY":"0.00021230","MEAN_MOTION":"15.08831265"},{"APOAPSIS":"540.976","PERIAPSIS":"538.607","OBJECT_TYPE":"PAYLOAD","MEAN_ANOMALY":"11.2903","FILE":"3375547","BSTAR":"0.00158510000000","SEMIMAJOR_AXIS":"6917.926","EPHEMERIS_TYPE":"0","CLASSIFICATION_TYPE":"U","TIME_SYSTEM":"UTC","COUNTRY_CODE":"US","OBJECT_ID":"2021-104T","LAUNCH_DATE":"2021-11-13","TLE_LINE2":"2 49425  53.2157 230.4604 0001712  44.0627  11.2903 15.08824959 21754","MEAN_MOTION":"15.08824959","MEAN_ELEMENT_THEORY":"SGP4","ECCENTRICITY":"0.00017120","ELEMENT_SET_NO":"999","NORAD_CAT_ID":"49425","REV_AT_EPOCH":"2175","DECAY_DATE":null,"PERIOD":"95.439","MEAN_MOTION_DOT":"0.00025019","RA_OF_ASC_NODE":"230.4604","TLE_LINE1":"1 49425U 21104T   22085.91667824  .00025019  00000-0  15851-2 0  9991","ARG_OF_PERICENTER":"44.0627","CENTER_NAME":"EARTH","RCS_SIZE":"LARGE","INCLINATION":"53.2157","REF_FRAME":"TEME","SITE":"AFETR","OBJECT_NAME":"STARLINK-3139","EPOCH":"2022-03-26T22:00:00.999936","GP_ID":"199755774","MEAN_MOTION_DDOT":"0.0000000000000"},{"CLASSIFICATION_TYPE":"U","TIME_SYSTEM":"UTC","COUNTRY_CODE":"US","OBJECT_ID":"2021-104U","LAUNCH_DATE":"2021-11-13","TLE_LINE2":"2 49426  53.2161 230.4539 0002009  45.1906 330.1827 15.08813765  3592","APOAPSIS":"541.215","PERIAPSIS":"538.436","OBJECT_TYPE":"PAYLOAD","MEAN_ANOMALY":"330.1827","BSTAR":"0.00143390000000","FILE":"3375650","SEMIMAJOR_AXIS":"6917.961","EPHEMERIS_TYPE":"0","NORAD_CAT_ID":"49426","DECAY_DATE":null,"REV_AT_EPOCH":"359","PERIOD":"95.439","RA_OF_ASC_NODE":"230.4539","MEAN_MOTION_DOT":"0.00022590","TLE_LINE1":"1 49426U 21104U   22085.91667824  .00022590  00000-0  14339-2 0  9993","ARG_OF_PERICENTER":"45.1906","CENTER_NAME":"EARTH","RCS_SIZE":"LARGE","INCLINATION":"53.2161","REF_FRAME":"TEME","SITE":"AFETR","OBJECT_NAME":"STARLINK-3114","EPOCH":"2022-03-26T22:00:00.999936","GP_ID":"199781479","MEAN_MOTION_DDOT":"0.0000000000000","MEAN_MOTION":"15.08813765","MEAN_ELEMENT_THEORY":"SGP4","ECCENTRICITY":"0.00020090","ELEMENT_SET_NO":"999"},{"MEAN_ANOMALY":"32.4255","PERIAPSIS":"538.570","APOAPSIS":"541.042","OBJECT_TYPE":"PAYLOAD","SEMIMAJOR_AXIS":"6917.941","EPHEMERIS_TYPE":"0","FILE":"3375548","BSTAR":"0.00157020000000","COUNTRY_CODE":"US","TIME_SYSTEM":"UTC","CLASSIFICATION_TYPE":"U","LAUNCH_DATE":"2021-11-13","OBJECT_ID":"2021-104V","TLE_LINE2":"2 49427  53.2168 230.4545 0001787  42.9260  32.4255 15.08820252 21773","MEAN_MOTION":"15.08820252","ELEMENT_SET_NO":"999","ECCENTRICITY":"0.00017870","MEAN_ELEMENT_THEORY":"SGP4","CENTER_NAME":"EARTH","RCS_SIZE":"LARGE","TLE_LINE1":"1 49427U 21104V   22085.91667824  .00024777  00000-0  15702-2 0  9998","ARG_OF_PERICENTER":"42.9260","DECAY_DATE":null,"REV_AT_EPOCH":"2177","PERIOD":"95.439","RA_OF_ASC_NODE":"230.4545","MEAN_MOTION_DOT":"0.00024777","NORAD_CAT_ID":"49427","MEAN_MOTION_DDOT":"0.0000000000000","OBJECT_NAME":"STARLINK-3131","GP_ID":"199756180","EPOCH":"2022-03-26T22:00:00.999936","INCLINATION":"53.2168","SITE":"AFETR","REF_FRAME":"TEME"},{"CLASSIFICATION_TYPE":"U","TIME_SYSTEM":"UTC","COUNTRY_CODE":"US","TLE_LINE2":"2 49428  53.2187 230.4729 0002338  31.0924  99.0918 15.08828616 21753","OBJECT_ID":"2021-104W","LAUNCH_DATE":"2021-11-13","OBJECT_TYPE":"PAYLOAD","PERIAPSIS":"538.163","APOAPSIS":"541.398","MEAN_ANOMALY":"99.0918","FILE":"3375563","BSTAR":"0.00038586000000","EPHEMERIS_TYPE":"0","SEMIMAJOR_AXIS":"6917.915","NORAD_CAT_ID":"49428","MEAN_MOTION_DOT":"0.00005856","PERIOD":"95.438","RA_OF_ASC_NODE":"230.4729","DECAY_DATE":null,"REV_AT_EPOCH":"2175","ARG_OF_PERICENTER":"31.0924","TLE_LINE1":"1 49428U 21104W   22085.91667824  .00005856  00000-0  38586-3 0  9992","RCS_SIZE":"LARGE","CENTER_NAME":"EARTH","REF_FRAME":"TEME","SITE":"AFETR","INCLINATION":"53.2187","GP_ID":"199756194","EPOCH":"2022-03-26T22:00:00.999936","OBJECT_NAME":"STARLINK-3121","MEAN_MOTION_DDOT":"0.0000000000000","MEAN_MOTION":"15.08828616","ECCENTRICITY":"0.00023380","MEAN_ELEMENT_THEORY":"SGP4","ELEMENT_SET_NO":"999"},{"ELEMENT_SET_NO":"999","MEAN_ELEMENT_THEORY":"SGP4","ECCENTRICITY":"0.00018500","MEAN_MOTION":"15.08833149","MEAN_MOTION_DDOT":"0.0000000000000","GP_ID":"199781229","EPOCH":"2022-03-26T22:00:00.999936","OBJECT_NAME":"STARLINK-3138","REF_FRAME":"TEME","SITE":"AFETR","INCLINATION":"53.2164","RCS_SIZE":"LARGE","CENTER_NAME":"EARTH","ARG_OF_PERICENTER":"41.2384","TLE_LINE1":"1 49430U 21104Y   22085.91667824  .00025156  00000-0  15933-2 0  9990","PERIOD":"95.438","RA_OF_ASC_NODE":"230.4617","MEAN_MOTION_DOT":"0.00025156","REV_AT_EPOCH":"359","DECAY_DATE":null,"NORAD_CAT_ID":"49430","EPHEMERIS_TYPE":"0","SEMIMAJOR_AXIS":"6917.901","BSTAR":"0.00159330000000","FILE":"3375650","MEAN_ANOMALY":"54.1362","OBJECT_TYPE":"PAYLOAD","PERIAPSIS":"538.487","APOAPSIS":"541.046","TLE_LINE2":"2 49430  53.2164 230.4617 0001850  41.2384  54.1362 15.08833149  3592","OBJECT_ID":"2021-104Y","LAUNCH_DATE":"2021-11-13","COUNTRY_CODE":"US","TIME_SYSTEM":"UTC","CLASSIFICATION_TYPE":"U"}];
